NORAD_CAT_ID,OBJECT_NAME,OBJECT_TYPE,EPOCH,MEAN_MOTION,ECCENTRICITY,INCLINATION,RA_OF_ASC_NODE,ARG_OF_PERICENTER,MEAN_ANOMALY,BSTAR,MEAN_MOTION_DOT,MEAN_MOTION_DDOT,TLE_LINE0,TLE_LINE1,TLE_LINE2,SEMIMAJOR_AXIS,PERIOD,APOGEE,PERIGEE,DECAYED
51134.0,STARLINK-3183,PAYLOAD,2022-06-08 09:23:56,15.08841803,0.0002039,53.2165,320.61,38.3549,321.7588,8.3306e-06,-1.56e-06,0.0,0 STARLINK-3183,1 51134U 22005AG  22159.39162467 -.00000156  00000-0  83306-5 0  9998,2 51134  53.2165 320.6100 0002039  38.3549 321.7588 15.08841803 22013,6917.875,95.437,541.15,538.3290000000002,0.0
51134.0,STARLINK-3183,PAYLOAD,2022-06-08 20:31:38,15.08834893,0.0001987,53.216,318.5277,32.7391,327.3724,-7.2786e-05,-1.446e-05,0.0,0 STARLINK-3183,1 51134U 22005AG  22159.85531230 -.00001446  00000-0 -72786-4 0  9990,2 51134  53.2160 318.5277 0001987  32.7391 327.3724 15.08834893 22085,6917.896,95.438,541.136,538.386,0.0
51134.0,STARLINK-3183,PAYLOAD,2022-06-09 10:50:06,15.08834297,0.0002025,53.2172,315.8516,37.137,322.9762,4.0066e-05,3.49e-06,0.0,0 STARLINK-3183,1 51134U 22005AG  22160.45146828  .00000349  00000-0  40066-4 0  9998,2 51134  53.2172 315.8516 0002025  37.1370 322.9762 15.08834297 22175,6917.898,95.438,541.164,538.362,0.0
51134.0,STARLINK-3183,PAYLOAD,2022-06-09 17:11:39,15.08840133,0.0002022,53.2168,314.6621,38.9457,321.1681,4.5696e-05,4.39e-06,0.0,0 STARLINK-3183,1 51134U 22005AG  22160.71642489  .00000439  00000-0  45696-4 0  9995,2 51134  53.2168 314.6621 0002022  38.9457 321.1681 15.08840133 23321,6917.88,95.438,541.144,538.346,0.0
51134.0,STARLINK-3183,PAYLOAD,2022-06-10 02:43:58,15.08838664,0.000211,53.2163,312.8778,34.3596,325.7533,-0.00014554,-2.604e-05,0.0,0 STARLINK-3183,1 51134U 22005AG  22161.11387282 -.00002604  00000-0 -14554-3 0  9993,2 51134  53.2163 312.8778 0002110  34.3596 325.7533 15.08838664 23389,6917.884,95.438,541.2090000000002,538.29,0.0
51134.0,STARLINK-3183,PAYLOAD,2022-06-10 09:05:30,15.08848484,0.0002117,53.2162,311.6884,37.2103,322.9036,-0.00026429,-4.493e-05,0.0,0 STARLINK-3183,1 51134U 22005AG  22161.37883048 -.00004493  00000-0 -26429-3 0  9994,2 51134  53.2162 311.6884 0002117  37.2103 322.9036 15.08848484 22316,6917.854,95.437,541.184,538.255,0.0
51134.0,STARLINK-3183,PAYLOAD,2022-06-10 20:13:13,15.08832494,0.0002054,53.2164,309.607,36.4727,323.6404,3.8663e-05,3.27e-06,0.0,0 STARLINK-3183,1 51134U 22005AG  22161.84251382  .00000327  00000-0  38663-4 0  9990,2 51134  53.2164 309.6070 0002054  36.4727 323.6404 15.08832494 22383,6917.903,95.438,541.189,538.347,0.0
51134.0,STARLINK-3183,PAYLOAD,2022-06-11 13:42:27,15.08836852,0.0002155,53.2153,306.3348,28.5121,331.5988,-5.1705e-05,-1.111e-05,0.0,0 STARLINK-3183,1 51134U 22005AG  22162.57115533 -.00001111  00000-0 -51705-4 0  9994,2 51134  53.2153 306.3348 0002155  28.5121 331.5988 15.08836852 23608,6917.89,95.438,541.246,538.264,0.0
51134.0,STARLINK-3183,PAYLOAD,2022-06-11 18:28:37,15.08834733,0.0002082,53.2162,305.4429,35.762,324.3511,-6.2822e-05,-1.288e-05,0.0,0 STARLINK-3183,1 51134U 22005AG  22162.76987760 -.00001288  00000-0 -62822-4 0  9991,2 51134  53.2162 305.4429 0002082  35.7620 324.3511 15.08834733 22529,6917.896,95.438,541.202,538.321,0.0
51134.0,STARLINK-3183,PAYLOAD,2022-06-12 13:33:14,15.08838706,0.0002094,53.2164,301.8745,38.9924,321.1219,6.7674e-05,7.89e-06,0.0,0 STARLINK-3183,1 51134U 22005AG  22163.56475259  .00000789  00000-0  67674-4 0  9998,2 51134  53.2164 301.8745 0002094  38.9924 321.1219 15.08838706 22644,6917.884,95.438,541.198,538.3009999999998,0.0
51134.0,STARLINK-3183,PAYLOAD,2022-06-12 16:44:00,15.08841918,0.0002106,53.2166,301.2806,40.2653,319.8494,6.351e-05,7.23e-06,0.0,0 STARLINK-3183,1 51134U 22005AG  22163.69723064  .00000723  00000-0  63510-4 0  9995,2 51134  53.2166 301.2806 0002106  40.2653 319.8494 15.08841918 23770,6917.875,95.437,541.196,538.283,0.0
51134.0,STARLINK-3183,PAYLOAD,2022-06-13 08:37:52,15.08841919,0.0002045,53.2165,298.3068,39.9662,320.148,9.9524e-06,-1.3e-06,0.0,0 STARLINK-3183,1 51134U 22005AG  22164.35963198 -.00000130  00000-0  99524-5 0  9991,2 51134  53.2165 298.3068 0002045  39.9662 320.1480 15.08841919 22761,6917.875,95.437,541.154,538.325,0.0
51134.0,STARLINK-3183,PAYLOAD,2022-06-13 14:59:24,15.08846023,0.0002023,53.2178,297.1181,40.312,319.8022,3.0504e-05,1.97e-06,0.0,0 STARLINK-3183,1 51134U 22005AG  22164.62458806  .00000197  00000-0  30504-4 0  9990,2 51134  53.2178 297.1181 0002023  40.3120 319.8022 15.08846023 22802,6917.861999999999,95.437,541.126,538.327,0.0
51134.0,STARLINK-3183,PAYLOAD,2022-06-14 02:07:06,15.08848604,0.0002176,53.2178,295.0365,43.0787,317.0375,5.902899999999999e-05,6.52e-06,0.0,0 STARLINK-3183,1 51134U 22005AG  22165.08826418  .00000652  00000-0  59029-4 0  9998,2 51134  53.2178 295.0365 0002176  43.0787 317.0375 15.08848604 23989,6917.854,95.437,541.224,538.214,0.0
51134.0,STARLINK-3183,PAYLOAD,2022-06-14 08:28:38,15.08844178,0.000216,53.2181,293.8474,41.8764,318.2393,0.00010195,1.335e-05,0.0,0 STARLINK-3183,1 51134U 22005AG  22165.35322444  .00001335  00000-0  10195-3 0  9997,2 51134  53.2181 293.8474 0002160  41.8764 318.2393 15.08844178 22911,6917.868,95.437,541.227,538.238,0.0
51134.0,STARLINK-3183,PAYLOAD,2022-06-14 18:00:57,15.08839112,0.0002108,53.2187,292.0638,41.1979,318.9172,-2.5832e-05,-6.99e-06,0.0,0 STARLINK-3183,1 51134U 22005AG  22165.75067022 -.00000699  00000-0 -25832-4 0  9998,2 51134  53.2187 292.0638 0002108  41.1979 318.9172 15.08839112 24087,6917.8830000000025,95.438,541.206,538.29,0.0
51134.0,STARLINK-3183,PAYLOAD,2022-06-15 11:30:13,15.08824508,0.000208,53.218,288.7926,37.4825,322.6312,-2.7876e-05,-7.32e-06,0.0,0 STARLINK-3183,1 51134U 22005AG  22166.47932055 -.00000732  00000-0 -27876-4 0  9993,2 51134  53.2180 288.7926 0002080  37.4825 322.6312 15.08824508 24192,6917.928000000001,95.439,541.232,538.354,0.0
51134.0,STARLINK-3183,PAYLOAD,2022-06-15 14:40:59,15.08834946,0.0002151,53.2179,288.1963,41.7468,318.3688,-5.1681e-05,-1.111e-05,0.0,0 STARLINK-3183,1 51134U 22005AG  22166.61179539 -.00001111  00000-0 -51681-4 0  9992,2 51134  53.2179 288.1963 0002151  41.7468 318.3688 15.08834946 23100,6917.896,95.438,541.249,538.273,0.0
51134.0,STARLINK-3183,PAYLOAD,2022-06-19 10:53:21,15.08834287,0.0002186,53.2183,270.9507,39.6677,320.4475,0.00022209,3.248e-05,0.0,0 STARLINK-3183,1 51134U 22005AG  22170.45372193  .00003248  00000-0  22209-3 0  9994,2 51134  53.2183 270.9507 0002186  39.6677 320.4475 15.08834287 23683,6917.898,95.438,541.275,538.251,0.0
51134.0,STARLINK-3183,PAYLOAD,2022-06-19 12:28:44,15.08833574,0.0002182,53.2183,270.6534,39.7924,320.3228,0.00021831,3.187e-05,0.0,0 STARLINK-3183,1 51134U 22005AG  22170.51996276  .00003187  00000-0  21831-3 0  9997,2 51134  53.2183 270.6534 0002182  39.7924 320.3228 15.08833574 23696,6917.9,95.438,541.275,538.256,0.0
51134.0,STARLINK-3183,PAYLOAD,2022-06-19 23:36:27,15.08831189,0.0002264,53.2184,268.5719,40.7737,319.3425,0.00012226,1.658e-05,0.0,0 STARLINK-3183,1 51134U 22005AG  22170.98364990  .00001658  00000-0  12226-3 0  9999,2 51134  53.2184 268.5719 0002264  40.7737 319.3425 15.08831189 24871,6917.906999999997,95.438,541.339,538.206,0.0
51134.0,STARLINK-3183,PAYLOAD,2022-06-20 10:44:09,15.08832467,0.0002218,53.2184,266.4904,41.0289,319.0869,4.5802e-05,4.41e-06,0.0,0 STARLINK-3183,1 51134U 22005AG  22171.44733286  .00000441  00000-0  45802-4 0  9995,2 51134  53.2184 266.4904 0002218  41.0289 319.0869 15.08832467 23833,6917.903,95.438,541.303,538.234,0.0
51134.0,STARLINK-3183,PAYLOAD,2022-06-20 13:54:55,15.08836761,0.0002204,53.2182,265.8949,39.5473,320.5679,8.7072e-06,-1.5e-06,0.0,0 STARLINK-3183,1 51134U 22005AG  22171.57981168 -.00000150  00000-0  87072-5 0  9997,2 51134  53.2182 265.8949 0002204  39.5473 320.5679 15.08836761 23854,6917.89,95.438,541.28,538.231,0.0
51134.0,STARLINK-3183,PAYLOAD,2022-06-21 05:48:46,15.0885147,0.0002175,53.2182,262.921,39.3301,320.7849,-1.25e-05,-4.87e-06,0.0,0 STARLINK-3183,1 51134U 22005AG  22172.24220115 -.00000487  00000-0 -12500-4 0  9997,2 51134  53.2182 262.9210 0002175  39.3301 320.7849 15.08851470 25068,6917.845,95.437,541.215,538.206,0.0
51134.0,STARLINK-3183,PAYLOAD,2022-06-21 12:10:18,15.08849364,0.000222,53.2182,261.7319,39.2517,320.8636,-2.564e-05,-6.96e-06,0.0,0 STARLINK-3183,1 51134U 22005AG  22172.50716097 -.00000696  00000-0 -25640-4 0  9996,2 51134  53.2182 261.7319 0002220  39.2517 320.8636 15.08849364 23998,6917.852,95.437,541.253,538.181,0.0
51134.0,STARLINK-3183,PAYLOAD,2022-06-21 13:45:41,15.08855221,0.0002212,53.2181,261.4345,37.3801,322.7345,-0.0001396999999999,-2.512e-05,0.0,0 STARLINK-3183,1 51134U 22005AG  22172.57340072 -.00002512  00000-0 -13970-3 0  9990,2 51134  53.2181 261.4345 0002212  37.3801 322.7345 15.08855221 24009,6917.834,95.437,541.229,538.169,0.0
51134.0,STARLINK-3183,PAYLOAD,2022-06-22 12:01:06,15.08833857,0.000226,53.2186,257.2725,37.8834,322.2317,-1.7329e-06,-3.16e-06,0.0,0 STARLINK-3183,1 51134U 22005AG  22173.50076844 -.00000316  00000-0 -17329-5 0  9991,2 51134  53.2186 257.2725 0002260  37.8834 322.2317 15.08833857 25256,6917.899,95.438,541.328,538.201,0.0
51134.0,STARLINK-3183,PAYLOAD,2022-06-22 13:36:29,15.08833775,0.000212,53.2185,256.9745,39.8565,320.2582,-1.5157e-05,-5.29e-06,0.0,0 STARLINK-3183,1 51134U 22005AG  22173.56700888 -.00000529  00000-0 -15157-4 0  9991,2 51134  53.2185 256.9745 0002120  39.8565 320.2582 15.08833775 24150,6917.899,95.438,541.231,538.298,0.0
51134.0,STARLINK-3183,PAYLOAD,2022-06-23 11:51:53,15.08841609,0.0002267,53.2178,252.8118,40.9982,319.118,-0.0001144,-2.109e-05,0.0,0 STARLINK-3183,1 51134U 22005AG  22174.49436811 -.00002109  00000-0 -11440-3 0  9992,2 51134  53.2178 252.8118 0002267  40.9982 319.1180 15.08841609 24290,6917.875,95.437,541.309,538.172,0.0
51134.0,STARLINK-3183,PAYLOAD,2022-06-23 13:27:16,15.08841365,0.0002237,53.2175,252.5143,37.3894,322.7253,-0.00017903,-3.137e-05,0.0,0 STARLINK-3183,1 51134U 22005AG  22174.56061031 -.00003137  00000-0 -17903-3 0  9990,2 51134  53.2175 252.5143 0002237  37.3894 322.7253 15.08841365 25416,6917.876,95.437,541.289,538.194,0.0
